[{"OBJECT_NAME":"XIWANG-5 02","OBJECT_ID":"2025-296A","EPOCH":"2026-03-09T21:42:05.145408","MEAN_MOTION":15.14679874,"ECCENTRICITY":0.00016159,"INCLINATION":41.3524,"RA_OF_ASC_NODE":326.5092,"ARG_OF_PERICENTER":203.554,"MEAN_ANOMALY":156.5206,"EPHEMERIS_TYPE":0,"CLASSIFICATION_TYPE":"U","NORAD_CAT_ID":67069,"ELEMENT_SET_NO":999,"REV_AT_EPOCH":1317,"BSTAR":0.00063449383,"MEAN_MOTION_DOT":0.00011786,"MEAN_MOTION_DDOT":0},{"OBJECT_NAME":"COSMOS 2251 DEB","OBJECT_ID":"1993-036BDM","EPOCH":"2026-03-07T08:26:45.291840","MEAN_MOTION":15.06951358,"ECCENTRICITY":0.00416459,"INCLINATION":73.8833,"RA_OF_ASC_NODE":199.9445,"ARG_OF_PERICENTER":129.9164,"MEAN_ANOMALY":230.5698,"EPHEMERIS_TYPE":0,"CLASSIFICATION_TYPE":"U","NORAD_CAT_ID":36551,"ELEMENT_SET_NO":999,"REV_AT_EPOCH":68204,"BSTAR":0.0035281021,"MEAN_MOTION_DOT":0.00054188,"MEAN_MOTION_DDOT":0}]
